#dP2023  7 29  0  0  0.00000000      96 __u+U ITR00 EXT  IAC
## 2272 518400.00000000   900.00000000 60154 0.0000000000000
+  119   C06C07C08C09C10C11C12C13C14C16C19C20C21C22C23C24C25
+        C26C27C28C29C30C32C33C34C35C36C37C38C39C40C41C42C43
+        C44C45C46E02E03E04E05E07E08E09E10E11E12E13E14E15E18
+        E19E21E24E25E26E27E30E31E33E34E36G01G02G03G04G05G06
+        G07G08G09G10G11G12G13G14G15G16G17G18G19G20G21G22G23
+        G24G25G26G27G28G29G30G31G32J02J03J04R01R02R03R04R05
+        R07R08R09R11R12R13R14R15R16R17R18R19R20R21R22R24R25
++        11 10  9 10  9  7  9  9  9 11  8  8  8  9  6 10  9
++         9 10  9  9 10  7  9  8  9  9  7 10 11 11 10 10  8
++         9  8  7  8  7  8  8  7  7  6  6  8  8  6  8  7  8
++         7  8  6  7  6  6  7  7  8  6  6  7  7  7  7  7  6
++         8  7  6  8  6  8  7  6  7  7  6  6  7  6  8  8  6
++         6  5  6  9  6  9  7  6  9 11  9 10 10  8  8  6  7
++         9  7  6  7  8  8  8  7  8  9  8  8  9  7  8  7  8
%c M  cc GPS ccc cccc cccc cccc cccc ccccc ccccc ccccc ccccc
%c cc cc ccc ccc cccc cccc cccc cccc ccccc ccccc ccccc ccccc
%f  0.0000000  0.000000000  0.00000000000  0.000000000000000
%f  0.0000000  0.000000000  0.00000000000  0.000000000000000
%i    0    0    0    0      0      0      0      0         0
%i    0    0    0    0      0      0      0      0         0
/* IAC                                ULTRA-RAPID PREDICTION
/* S/V CLOCKS ARE ALIGNED TO GNSS TIME                      
/* G:C1WC2W R:C1PC2P E:C1XC5X C:C2IC6I J:C1CC2S             
/* PCV:IGS20_2247 OL/AL:FES2004  NONE     YN ORB:CoN CLK:CoN
*  2023 07 29  2 30  0.00000000
PC06 -11581.408138  22731.656901 -33582.141013    726.298566
PC07 -14658.137803  38519.451137   8402.360910    154.451859
PC08    858.400711  34936.075725  23714.916549    411.144079
PC09   -894.933290  24455.846958 -33870.068435    359.545878
PC10  -8981.400166  38575.709133  13946.329860   -128.631804
PC11  23650.197616  -9234.731155 -11551.936851    750.690060
PC12  27083.994212   2142.050039   6446.587177    825.777045
PC13   5561.123739  37814.472895  18237.443925    324.274190
PC14  17109.632581 -18748.438309 -11655.843232    135.225565
PC16 -13152.778125  21683.632594 -33470.862203    -12.860909
PC19 -13103.453811  24458.531755   2858.572305   -948.622912
PC20 -18296.027663  11584.270893  17588.742645    402.015679
PC21  12847.922769   9393.081732 -22910.839567   -941.191917
PC22    -67.652067  23911.805529 -14369.177315   -375.492510
PC23  -8717.121287 -24539.616651  10038.234201   -925.335672
PC24  19160.683817   1606.646276  20228.861689    224.319434
PC25   6223.457935 -17056.440545  21181.511817    177.837447
PC26  20371.968655  17296.565154   8083.830861   -155.419857
PC27 -23167.990861  -7464.555336 -13676.164263    176.444677
PC28  -7077.026138 -15036.293859 -22415.859592    131.722516
PC29 -15142.701033  14790.183977  18174.402042    153.551120
PC30 -27335.988008   5167.683848   2287.219443     -2.775506
PC32 -12866.113540  -9447.069950  22901.472097   -535.614296
PC33  13003.503522 -24529.085449  -2934.412436   -923.916377
PC34  26991.350630  -6046.267141  -3651.949455    225.100974
PC35   7209.529668  14939.702510  22422.702271    579.039160
PC36  -7238.303575  16327.627401 -21413.576145   -304.682698
PC37 -19679.592073 -18403.749102  -7201.474469   -799.081348
PC38  -5781.155985  30723.121030  28387.359755     94.620418
PC39 -19469.917977  20457.801412 -31333.509945     -4.046617
PC40 -22362.262329  35022.826232   6237.595761    -31.011859
PC41    474.170765 -24265.233483  13832.798373   -895.695002
PC42  18300.038767 -10238.372391 -18388.481699   -596.030911
PC43  15975.251774 -14609.175832 -17613.807549     32.819679
PC44  23310.947520   6766.857580  13730.383316    183.157604
PC45   9170.343235  24559.486528  -9588.216876     -7.483778
PC46 -18495.350861   -218.918344 -20879.319733    -72.411165
PE02 -14638.351496  12797.407321 -22319.014868     52.473443
PE03 -25256.453558  15322.341527   1743.347808    -40.592869
PE04  12682.332907 -21651.467942  15712.355789   -177.139242
PE05 -23206.099841    -39.617531  18376.226499      3.937789
PE07   7257.849841  15496.496656 -24146.457497    -63.372181
PE08 -13062.542994  21581.712661 -15472.866224   -121.747692
PE09  -7015.295625 -15483.234993  24236.147846   -101.087810
PE10  -7882.813674 -19079.300568 -21222.845320   -552.003197
PE11 -17985.955288 -18969.135201 -13911.178098   2599.357206
PE12   2588.588794 -16418.963134 -24504.068184   -636.542873
PE13  17430.838802  19012.657434  14516.227692    -19.362824
PE14 -20890.369766  12156.133924    700.314318    295.620589
PE15  -2950.638557  16184.093414  24604.845455    -40.782519
PE18  21806.627838 -21376.879861 -10366.510573    350.171822
PE19  25944.844286 -13611.175549  -4213.973770  -1972.066135
PE21  16397.543815   8684.328515  23067.309313   -543.454241
PE24  -8320.334569 -26620.677080  -9896.353263   -235.447035
PE25 -16333.798588  -9088.614038 -22940.448579   -609.016074
PE26  27402.515010  10205.503267  -4628.965764    176.742533
PE27   8763.743594  26266.691704  10475.970805   -110.875577
PE30  -4375.659843  27997.716318  -8572.140008   -373.672426
PE31   3962.918992 -28177.824471   8168.608425     -1.427779
PE33  21763.892180  -3434.372242 -19778.090711     -2.120406
PE34 -21297.589766   3971.073893  20150.667388    -58.594988
PE36 -27326.027532 -10685.185744   3913.836914    -92.900670
PG01 -21805.329510 -15056.823187  -3969.991132    170.828491
PG02 -19231.962529 -15435.737181  -9562.214058   -571.325972
PG03 -12369.387209 -15441.009580  17634.434065   -212.385260
PG04 -17604.762254  -5250.034166  19234.431107    109.337701
PG05   5509.726078  25483.795370  -4937.767415   -136.695050
PG06 -11088.521957  10345.187479  21875.588146    573.075434
PG07 -24097.820193  -4446.681376 -10357.548405    111.540171
PG08  -7716.277480 -13237.530061 -21758.130979   -134.540399
PG09 -22739.619633   3898.945930  13118.697083   -100.575402
PG10  11201.505436 -16109.170246 -17568.614547    -47.055415
PG11   3914.183761  17866.550725  19282.376867   -296.351631
PG12   9865.442865  19262.361691  15172.458339   -406.354639
PG13  -1868.100737  16495.462359 -20869.983656    553.180469
PG14 -13484.589719  12809.257400 -18880.783367    137.027159
PG15  10129.047586  12430.779167 -21644.710442     62.433741
PG16    381.123499 -26284.298103  -1429.077792   -475.179147
PG17 -22320.912091  14304.298211   2805.561769    721.843176
PG18  22883.296608   2230.788092 -13446.130714   -362.826706
PG19 -18477.801444  16178.312576   9466.926193    350.227813
PG20    774.492708  25895.991876   6319.427818    420.158979
PG21 -17658.024303 -16316.407653 -11672.211814    151.549883
PG22  15153.107030 -17858.124636  12827.321970    519.422721
PG23  14714.811171  -2828.023913 -21917.560157     48.542865
PG24  20210.222629  15464.693476  -8686.387242   -272.770878
PG25  15090.258185   5893.890339  20780.084159    458.948976
PG26   5284.503172 -23599.425090  10459.251887    234.938712
PG27   4809.156239 -18310.484474 -18709.005369    -12.052082
PG28  12844.612256 -10024.490216  20954.970288     80.266350
PG29  22622.008977  -1266.530732  13892.686844   -606.625481
PG30 -19455.607570   4242.281125 -17579.009707   -500.771531
PG31   2189.386993 -15817.001902  20978.709833   -220.892040
PG32  19805.743589 -16849.457077   5046.263298   -530.328261
PJ02 -22002.589778  28568.659239 -17158.933127     -1.886149
PJ03 -28631.967232  23488.572078  25167.198561     -0.450260
PJ04 -29496.285382  29552.785144  11716.146416     97.786324
PR01  10074.775044 -22134.805659   7717.564807     62.363664
PR02  -2211.108408 -14056.293917  21195.779579    -22.574035
PR03 -13509.388179   1613.735649  21633.295993     82.308707
PR04 -17065.649007  15969.264520  10260.676035    196.564169
PR05 -11568.231365  21733.209977  -6709.465109    116.491157
PR07  13814.942046  -2345.466857 -21264.435201     61.217960
PR08  16949.593824 -16205.563205  -9943.397469    -71.864348
PR09  12308.406366  22220.297125   1816.422467    133.733706
PR11   9830.224115  -4823.210091  23053.148232   -116.884671
PR12  -1787.883968 -20469.058496  15139.679545     29.594900
PR13 -11206.764234 -22914.337690    254.745165    -37.573425
PR14 -14916.649876 -11453.667139 -17226.223374     25.023250
PR15  -9324.644329   6078.405141 -22925.242739     87.470691
PR16   1843.355825  20245.006291 -15367.984406     17.170337
PR17 -24826.316008  -4043.224341  -4088.239016      3.972862
PR18 -22110.606268   3401.611160  12306.193614     93.978010
PR19  -9742.709482   8597.630368  21942.258897   -241.501579
PR20  12688.125530  10385.771500  19529.748745    -97.363848
PR21  25093.532900   3683.204011   2879.347059    -26.223288
PR22  21672.585980  -3347.437253 -13000.055435    103.515992
PR24 -13617.682662 -10206.835467 -18980.409444    -18.367746
PR25  24632.978270   5242.859445   4134.456420     45.236367
EOF
